STARLINK-32429          
1 61682U 24193X   26068.38632822 -.00000755  00000+0 -13391-4 0  9997
2 61682  53.1602  92.1586 0001145 101.2663 258.8466 15.30187269 76489
KUIPER-00208            
1 67775U 26030M   26068.67231509  .00043852  00000+0  13883-2 0  9994
2 67775  51.8846 219.6993 0015525  57.3146 302.9333 15.32208734  5080
