[{"OBJECT_NAME":"STARLINK-32429","OBJECT_ID":"2024-193X","EPOCH":"2026-03-09T09:16:18.758208","MEAN_MOTION":15.30187269,"ECCENTRICITY":0.00011459,"INCLINATION":53.1602,"RA_OF_ASC_NODE":92.1586,"ARG_OF_PERICENTER":101.2663,"MEAN_ANOMALY":258.8466,"EPHEMERIS_TYPE":0,"CLASSIFICATION_TYPE":"U","NORAD_CAT_ID":61682,"ELEMENT_SET_NO":999,"REV_AT_EPOCH":7648,"BSTAR":-1.3390741e-5,"MEAN_MOTION_DOT":-7.55e-6,"MEAN_MOTION_DDOT":0},{"OBJECT_NAME":"KUIPER-00208","OBJECT_ID":"2026-030M","EPOCH":"2026-03-09T16:08:08.024640","MEAN_MOTION":15.32208734,"ECCENTRICITY":0.00155248,"INCLINATION":51.8846,"RA_OF_ASC_NODE":219.6993,"ARG_OF_PERICENTER":57.3146,"MEAN_ANOMALY":302.9333,"EPHEMERIS_TYPE":0,"CLASSIFICATION_TYPE":"U","NORAD_CAT_ID":67775,"ELEMENT_SET_NO":999,"REV_AT_EPOCH":508,"BSTAR":0.0013882708,"MEAN_MOTION_DOT":0.00043852,"MEAN_MOTION_DDOT":0}]
